GLOBALSTAR M094         
1 39074U 13005C   24181.41201832 -.00000091  00000+0  73993-4 0  9994
2 39074  51.9928 176.2134 0000192 215.3645 144.7209 12.62267352527828
GLOBALSTAR M096         
1 39075U 13005D   24181.50435481 -.00000091  00000+0  69043-4 0  9995
2 39075  52.0052 224.1731 0000600 177.6647 182.4222 12.62267373526759
GLOBALSTAR M078         
1 39076U 13005E   24181.63652252 -.00000206  00000+0 -57282-3 0  9997
2 39076  51.9892 308.7609 0001649 116.6845 243.4191 12.62270827525390
GLOBALSTAR M095         
1 39077U 13005F   24181.50409514 -.00000238  00000+0 -74903-3 0  9999
2 39077  51.9816 306.5330 0001324 134.6412 225.4562 12.62262536525237
GLOBALSTAR M087         
1 52888U 22064A   24181.36334270 -.00000096  00000+0  61029-4 0  9996
2 52888  51.9735 165.9231 0009621  36.3687 323.7865 13.37577272 99153
